CCSDS_OMM_VERS,COMMENT,CREATION_DATE,ORIGINATOR,OBJECT_NAME,OBJECT_ID,CENTER_NAME,REF_FRAME,TIME_SYSTEM,MEAN_ELEMENT_THEORY,EPOCH,MEAN_MOTION,ECCENTRICITY,INCLINATION,RA_OF_ASC_NODE,ARG_OF_PERICENTER,MEAN_ANOMALY,EPHEMERIS_TYPE,CLASSIFICATION_TYPE,NORAD_CAT_ID,ELEMENT_SET_NO,REV_AT_EPOCH,BSTAR,MEAN_MOTION_DOT,MEAN_MOTION_DDOT,SEMIMAJOR_AXIS,PERIOD,APOAPSIS,PERIAPSIS,OBJECT_TYPE,RCS_SIZE,COUNTRY_CODE,LAUNCH_DATE,SITE,DECAY_DATE,FILE,GP_ID,TLE_LINE0,TLE_LINE1,TLE_LINE2
2,GENERATED VIA SPACE-TRACK.ORG API,2023-06-04T22:56:13,18 SPCS,STARLINK-1098,2020-001D,EARTH,TEME,UTC,SGP4,2023-06-04T09:13:14.873088,15.06400741,0.0001103,53.0515,197.568,78.098,282.0132,0,U,44917,999,18772,0.00018429,2.465e-05,0,6925.346,95.592,547.975,546.447,PAYLOAD,LARGE,US,2020-01-07,AFETR,,3925088,233193361,0 STARLINK-1098,1 44917U 20001D   23155.38419992  .00002465  00000-0  18429-3 0  9993,2 44917  53.0515 197.5680 0001103  78.0980 282.0132 15.06400741187720
2,GENERATED VIA SPACE-TRACK.ORG API,2023-06-05T02:28:37,18 SPCS,STARLINK-1098,2020-001D,EARTH,TEME,UTC,SGP4,2023-06-04T20:22:01.568064,15.0639978,0.0001079,53.0514,195.4832,80.0039,280.1072,0,U,44917,999,18779,0.0002368,3.247e-05,0,6925.349,95.592,547.961,546.467,PAYLOAD,LARGE,US,2020-01-07,AFETR,,3925173,233211757,0 STARLINK-1098,1 44917U 20001D   23155.84862926  .00003247  00000-0  23680-3 0  9997,2 44917  53.0514 195.4832 0001079  80.0039 280.1072 15.06399780187794
2,GENERATED VIA SPACE-TRACK.ORG API,2023-06-05T06:56:13,18 SPCS,STARLINK-1098,2020-001D,EARTH,TEME,UTC,SGP4,2023-06-05T02:44:11.232960,15.06397033,0.0001153,53.0515,194.2918,79.0149,281.0969,0,U,44917,999,18783,0.00025298,3.488e-05,0,6925.358,95.592,548.021,546.424,PAYLOAD,LARGE,US,2020-01-07,AFETR,,3925422,233226939,0 STARLINK-1098,1 44917U 20001D   23156.11401890  .00003488  00000-0  25298-3 0  9991,2 44917  53.0515 194.2918 0001153  79.0149 281.0969 15.06397033187839
2,GENERATED VIA SPACE-TRACK.ORG API,2023-06-05T20:08:59,18 SPCS,STARLINK-1098,2020-001D,EARTH,TEME,UTC,SGP4,2023-06-05T12:17:25.348416,15.06400202,0.0001161,53.0516,192.5045,79.5135,280.5984,0,U,44917,999,18789,0.00023635,3.241e-05,0,6925.348,95.592,548.017,546.409,PAYLOAD,LARGE,US,2020-01-07,AFETR,,3925691,233252915,0 STARLINK-1098,1 44917U 20001D   23156.51209894  .00003241  00000-0  23635-3 0  9995,2 44917  53.0516 192.5045 0001161  79.5135 280.5984 15.06400202187891
2,GENERATED VIA SPACE-TRACK.ORG API,2023-06-06T14:46:13,18 SPCS,STARLINK-1098,2020-001D,EARTH,TEME,UTC,SGP4,2023-06-06T08:59:25.322496,15.06412425,0.0001085,53.0516,188.6322,87.8316,272.2797,0,U,44917,999,18802,0.00030612,4.283e-05,0,6925.31,95.591,547.927,546.424,PAYLOAD,LARGE,US,2020-01-07,AFETR,,3926236,233301394,0 STARLINK-1098,1 44917U 20001D   23157.37459864  .00004283  00000-0  30612-3 0  9994,2 44917  53.0516 188.6322 0001085  87.8316 272.2797 15.06412425188029
2,GENERATED VIA SPACE-TRACK.ORG API,2023-06-06T19:29:38,18 SPCS,STARLINK-1098,2020-001D,EARTH,TEME,UTC,SGP4,2023-06-06T10:34:57.620352,15.06413176,0.0001086,53.0516,188.3343,88.1298,271.9815,0,U,44917,999,18803,0.00031001,4.341e-05,0,6925.308,95.591,547.925,546.421,PAYLOAD,LARGE,US,2020-01-07,AFETR,,3926325,233320323,0 STARLINK-1098,1 44917U 20001D   23157.44094468  .00004341  00000-0  31001-3 0  9995,2 44917  53.0516 188.3343 0001086  88.1298 271.9815 15.06413176188035
2,GENERATED VIA SPACE-TRACK.ORG API,2023-06-07T07:06:13,18 SPCS,STARLINK-1098,2020-001D,EARTH,TEME,UTC,SGP4,2023-06-07T02:30:21.939840,15.06392103,0.0001175,53.0523,185.3567,87.8538,272.2586,0,U,44917,999,18813,-0.00012886,-2.2e-05,0,6925.373,95.593,548.051,546.424,PAYLOAD,LARGE,US,2020-01-07,AFETR,,3926809,233367963,0 STARLINK-1098,1 44917U 20001D   23158.10442060 -.00002200  00000-0 -12886-3 0  9998,2 44917  53.0523 185.3567 0001175  87.8538 272.2586 15.06392103188136
2,GENERATED VIA SPACE-TRACK.ORG API,2023-06-07T18:30:01,18 SPCS,STARLINK-1098,2020-001D,EARTH,TEME,UTC,SGP4,2023-06-07T12:03:36.368064,15.06392724,0.0001218,53.0526,183.5691,87.1297,272.9831,0,U,44917,999,18819,-4.8038e-05,-9.97e-06,0,6925.371,95.593,548.079,546.392,PAYLOAD,LARGE,US,2020-01-07,AFETR,,3927174,233394435,0 STARLINK-1098,1 44917U 20001D   23158.50250426 -.00000997  00000-0 -48038-4 0  9995,2 44917  53.0526 183.5691 0001218  87.1297 272.9831 15.06392724188195
2,GENERATED VIA SPACE-TRACK.ORG API,2023-06-08T03:08:27,18 SPCS,STARLINK-1098,2020-001D,EARTH,TEME,UTC,SGP4,2023-06-07T18:25:45.965568,15.06391692,0.0001212,53.0521,182.3779,82.5652,277.5475,0,U,44917,999,18823,-6.9284e-05,-1.313e-05,0,6925.374,95.593,548.078,546.4,PAYLOAD,LARGE,US,2020-01-07,AFETR,,3927436,233427148,0 STARLINK-1098,1 44917U 20001D   23158.76789312 -.00001313  00000-0 -69284-4 0  9993,2 44917  53.0521 182.3779 0001212  82.5652 277.5475 15.06391692188235
2,GENERATED VIA SPACE-TRACK.ORG API,2023-06-08T18:02:28,18 SPCS,STARLINK-1098,2020-001D,EARTH,TEME,UTC,SGP4,2023-06-08T08:45:37.286496,15.06394295,0.0001196,53.0521,179.6971,84.1148,275.9977,0,U,44917,999,18832,-2.7453e-05,-6.9e-06,0,6925.366,95.593,548.059,546.403,PAYLOAD,LARGE,US,2020-01-07,AFETR,,3928007,233468046,0 STARLINK-1098,1 44917U 20001D   23159.36501489 -.00000690  00000-0 -27453-4 0  9996,2 44917  53.0521 179.6971 0001196  84.1148 275.9977 15.06394295188328
2,GENERATED VIA SPACE-TRACK.ORG API,2023-06-08T14:46:17,18 SPCS,STARLINK-1098,2020-001D,EARTH,TEME,UTC,SGP4,2023-06-08T08:45:37.286496,15.06394295,0.0001196,53.0521,179.6971,84.1148,275.9977,0,U,44917,999,18832,-2.7453e-05,-6.9e-06,0,6925.366,95.593,548.059,546.403,PAYLOAD,LARGE,US,2020-01-07,AFETR,,3927927,233447904,0 STARLINK-1098,1 44917U 20001D   23159.36501489 -.00000690  00000-0 -27453-4 0  9996,2 44917  53.0521 179.6971 0001196  84.1148 275.9977 15.06394295188328
2,GENERATED VIA SPACE-TRACK.ORG API,2023-06-09T20:32:52,18 SPCS,STARLINK-1098,2020-001D,EARTH,TEME,UTC,SGP4,2023-06-09T08:38:43.328544,15.063926,0.0001102,53.0519,175.2288,85.4721,274.6394,0,U,44917,999,18847,0.00015505,2.028e-05,0,6925.371,95.593,547.999,546.473,PAYLOAD,LARGE,US,2020-01-07,AFETR,,3928876,233540565,0 STARLINK-1098,1 44917U 20001D   23160.36022371  .00002028  00000-0  15505-3 0  9995,2 44917  53.0519 175.2288 0001102  85.4721 274.6394 15.06392600188479
2,GENERATED VIA SPACE-TRACK.ORG API,2023-06-10T06:56:11,18 SPCS,STARLINK-1098,2020-001D,EARTH,TEME,UTC,SGP4,2023-06-10T00:34:07.016448,15.06397034,0.0001103,53.0518,172.25,86.006,274.1055,0,U,44917,999,18857,0.0001774,2.362e-05,0,6925.358,95.592,547.987,546.459,PAYLOAD,LARGE,US,2020-01-07,AFETR,,3929360,233589868,0 STARLINK-1098,1 44917U 20001D   23161.02369232  .00002362  00000-0  17740-3 0  9993,2 44917  53.0518 172.2500 0001103  86.0060 274.1055 15.06397034188572
2,GENERATED VIA SPACE-TRACK.ORG API,2023-06-10T21:12:52,18 SPCS,STARLINK-1098,2020-001D,EARTH,TEME,UTC,SGP4,2023-06-10T06:56:16.420416,15.06399503,0.0001125,53.0523,171.0592,86.7126,273.3991,0,U,44917,999,18861,0.00018349,2.453e-05,0,6925.35,95.592,547.994,546.436,PAYLOAD,LARGE,US,2020-01-07,AFETR,,3929709,233616539,0 STARLINK-1098,1 44917U 20001D   23161.28907894  .00002453  00000-0  18349-3 0  9990,2 44917  53.0523 171.0592 0001125  86.7126 273.3991 15.06399503188618
2,GENERATED VIA SPACE-TRACK.ORG API,2023-06-11T02:49:59,18 SPCS,STARLINK-1098,2020-001D,EARTH,TEME,UTC,SGP4,2023-06-10T18:05:02.976288,15.06400432,0.0001102,53.0521,168.9742,85.7718,274.3396,0,U,44917,999,18868,0.00016868,2.232e-05,0,6925.347,95.592,547.975,546.449,PAYLOAD,LARGE,US,2020-01-07,AFETR,,3929969,233648864,0 STARLINK-1098,1 44917U 20001D   23161.75350667  .00002232  00000-0  16868-3 0  9991,2 44917  53.0521 168.9742 0001102  85.7718 274.3396 15.06400432188680
2,GENERATED VIA SPACE-TRACK.ORG API,2023-06-11T18:29:30,18 SPCS,STARLINK-1098,2020-001D,EARTH,TEME,UTC,SGP4,2023-06-11T06:49:21.875808,15.06401605,0.0001126,53.0523,166.5915,86.4324,273.6794,0,U,44917,999,18876,0.00016325,2.151e-05,0,6925.344,95.592,547.988,546.429,PAYLOAD,LARGE,US,2020-01-07,AFETR,,3930529,233689826,0 STARLINK-1098,1 44917U 20001D   23162.28428097  .00002151  00000-0  16325-3 0  9991,2 44917  53.0523 166.5915 0001126  86.4324 273.6794 15.06401605188761
2,GENERATED VIA SPACE-TRACK.ORG API,2023-06-11T14:56:12,18 SPCS,STARLINK-1098,2020-001D,EARTH,TEME,UTC,SGP4,2023-06-11T06:49:21.875808,15.06401605,0.0001126,53.0523,166.5915,86.4324,273.6794,0,U,44917,999,18876,0.00016325,2.151e-05,0,6925.344,95.592,547.988,546.429,PAYLOAD,LARGE,US,2020-01-07,AFETR,,3930472,233670152,0 STARLINK-1098,1 44917U 20001D   23162.28428097  .00002151  00000-0  16325-3 0  9991,2 44917  53.0523 166.5915 0001126  86.4324 273.6794 15.06401605188761
2,GENERATED VIA SPACE-TRACK.ORG API,2023-06-12T18:17:57,18 SPCS,STARLINK-1098,2020-001D,EARTH,TEME,UTC,SGP4,2023-06-12T06:42:26.737632,15.06409505,0.0001135,53.0523,162.1239,85.0493,275.0626,0,U,44917,999,18891,0.00020018,2.702e-05,0,6925.319,95.592,547.97,546.398,PAYLOAD,LARGE,US,2020-01-07,AFETR,,3931287,233760786,0 STARLINK-1098,1 44917U 20001D   23163.27947613  .00002702  00000-0  20018-3 0  9997,2 44917  53.0523 162.1239 0001135  85.0493 275.0626 15.06409505188918
2,GENERATED VIA SPACE-TRACK.ORG API,2023-06-13T19:42:31,18 SPCS,STARLINK-1098,2020-001D,EARTH,TEME,UTC,SGP4,2023-06-13T00:13:23.868192,15.06389349,9.96e-05,53.0521,158.8486,74.9168,285.1931,0,U,44917,999,18902,-5.3366e-05,-1.076e-05,0,6925.381,95.593,547.936,546.556,PAYLOAD,LARGE,US,2020-01-07,AFETR,,3932134,233834728,0 STARLINK-1098,1 44917U 20001D   23164.00930403 -.00001076  00000-0 -53366-4 0  9996,2 44917  53.0521 158.8486 0000996  74.9168 285.1931 15.06389349189029
2,GENERATED VIA SPACE-TRACK.ORG API,2023-06-13T06:46:17,18 SPCS,STARLINK-1098,2020-001D,EARTH,TEME,UTC,SGP4,2023-06-13T00:13:23.868192,15.06389349,9.96e-05,53.0521,158.8486,74.9168,285.1931,0,U,44917,999,18902,-5.3366e-05,-1.076e-05,0,6925.381,95.593,547.936,546.556,PAYLOAD,LARGE,US,2020-01-07,AFETR,,3931798,233809949,0 STARLINK-1098,1 44917U 20001D   23164.00930403 -.00001076  00000-0 -53366-4 0  9996,2 44917  53.0521 158.8486 0000996  74.9168 285.1931 15.06389349189029
